{
  "type": "FeatureCollection",
  "features": [
    {
      "type": "Feature",
      "properties": {
        "norad_id": 34797,
        "name": "COSMOS 2251 DEB",
        "group": "cosmos-2251-debris",
        "lat": 72.69889696821446,
        "lon": -175.94484295993922,
        "alt_km": 786.5082698266442,
        "timestamp": "2025-12-03T17:47:51.113485+00:00",
        "meta_object_name": "COSMOS 2251 DEB",
        "meta_object_id": "1993-036ABA",
        "meta_epoch": "2025-12-02T16:26:28.609440",
        "meta_mean_motion": 14.42535201,
        "meta_eccentricity": 0.00725247,
        "meta_inclination": 73.9763,
        "meta_ra_of_asc_node": 118.7115,
        "meta_arg_of_pericenter": 233.7261,
        "meta_mean_anomaly": 125.7182,
        "meta_ephemeris_type": 0,
        "meta_classification_type": "U",
        "meta_norad_cat_id": 34797,
        "meta_element_set_no": 999,
        "meta_rev_at_epoch": 87270,
        "meta_bstar": 0.0028458232,
        "meta_mean_motion_dot": 9.728e-05,
        "meta_mean_motion_ddot": 0,
        "tle_line1": "1 34797U 93036ABA 25336.68505335  .00009728  00000+0  28458-2 0  9999",
        "tle_line2": "2 34797  73.9763 118.7115 0072524 233.7261 125.7182 14.42535201872702"
      },
      "geometry": {
        "type": "Point",
        "coordinates": [
          -175.94484295993922,
          72.69889696821446
        ]
      }
    },
    {
      "type": "Feature",
      "properties": {
        "norad_id": 34814,
        "name": "COSMOS 2251 DEB",
        "group": "cosmos-2251-debris",
        "lat": -68.89746042927983,
        "lon": -149.40367779424687,
        "alt_km": 738.4979664092871,
        "timestamp": "2025-12-03T17:47:51.113496+00:00",
        "meta_object_name": "COSMOS 2251 DEB",
        "meta_object_id": "1993-036ABD",
        "meta_epoch": "2025-12-02T11:13:46.501248",
        "meta_mean_motion": 14.36815971,
        "meta_eccentricity": 0.00568423,
        "meta_inclination": 73.8957,
        "meta_ra_of_asc_node": 344.4866,
        "meta_arg_of_pericenter": 235.7348,
        "meta_mean_anomaly": 274.6986,
        "meta_ephemeris_type": 0,
        "meta_classification_type": "U",
        "meta_norad_cat_id": 34814,
        "meta_element_set_no": 999,
        "meta_rev_at_epoch": 87185,
        "meta_bstar": 0.0010643945,
        "meta_mean_motion_dot": 3.176e-05,
        "meta_mean_motion_ddot": 0,
        "tle_line1": "1 34814U 93036ABD 25336.46789932  .00003176  00000+0  10644-2 0  9991",
        "tle_line2": "2 34814  73.8957 344.4866 0056842 235.7348 274.6986 14.36815971871859"
      },
      "geometry": {
        "type": "Point",
        "coordinates": [
          -149.40367779424687,
          -68.89746042927983
        ]
      }
    },
    {
      "type": "Feature",
      "properties": {
        "norad_id": 34815,
        "name": "COSMOS 2251 DEB",
        "group": "cosmos-2251-debris",
        "lat": 25.58430933419531,
        "lon": 71.59338136708234,
        "alt_km": 675.5708616598431,
        "timestamp": "2025-12-03T17:47:51.113507+00:00",
        "meta_object_name": "COSMOS 2251 DEB",
        "meta_object_id": "1993-036ABE",
        "meta_epoch": "2025-12-03T05:44:03.670368",
        "meta_mean_motion": 14.78081041,
        "meta_eccentricity": 0.005905,
        "meta_inclination": 74.0462,
        "meta_ra_of_asc_node": 260.4516,
        "meta_arg_of_pericenter": 331.6652,
        "meta_mean_anomaly": 28.1315,
        "meta_ephemeris_type": 0,
        "meta_classification_type": "U",
        "meta_norad_cat_id": 34815,
        "meta_element_set_no": 999,
        "meta_rev_at_epoch": 88487,
        "meta_bstar": 0.0015519,
        "meta_mean_motion_dot": 0.00011536,
        "meta_mean_motion_ddot": 0,
        "tle_line1": "1 34815U 93036ABE 25337.23893137  .00011536  00000+0  15519-2 0  9996",
        "tle_line2": "2 34815  74.0462 260.4516 0059050 331.6652  28.1315 14.78081041884874"
      },
      "geometry": {
        "type": "Point",
        "coordinates": [
          71.59338136708234,
          25.58430933419531
        ]
      }
    },
    {
      "type": "Feature",
      "properties": {
        "norad_id": 34816,
        "name": "COSMOS 2251 DEB",
        "group": "cosmos-2251-debris",
        "lat": 25.441428552688937,
        "lon": 165.70767054918494,
        "alt_km": 1304.7360065178527,
        "timestamp": "2025-12-03T17:47:51.113519+00:00",
        "meta_object_name": "COSMOS 2251 DEB",
        "meta_object_id": "1993-036ABF",
        "meta_epoch": "2025-12-03T06:10:46.926048",
        "meta_mean_motion": 13.58283045,
        "meta_eccentricity": 0.0373745,
        "meta_inclination": 73.8861,
        "meta_ra_of_asc_node": 158.593,
        "meta_arg_of_pericenter": 224.7049,
        "meta_mean_anomaly": 314.4822,
        "meta_ephemeris_type": 0,
        "meta_classification_type": "U",
        "meta_norad_cat_id": 34816,
        "meta_element_set_no": 999,
        "meta_rev_at_epoch": 82654,
        "meta_bstar": 0.0013936,
        "meta_mean_motion_dot": 1.573e-05,
        "meta_mean_motion_ddot": 0,
        "tle_line1": "1 34816U 93036ABF 25337.25748757  .00001573  00000+0  13936-2 0  9997",
        "tle_line2": "2 34816  73.8861 158.5930 0373745 224.7049 314.4822 13.58283045826543"
      },
      "geometry": {
        "type": "Point",
        "coordinates": [
          165.70767054918494,
          25.441428552688937
        ]
      }
    },
    {
      "type": "Feature",
      "properties": {
        "norad_id": 34818,
        "name": "COSMOS 2251 DEB",
        "group": "cosmos-2251-debris",
        "lat": -34.15953288789419,
        "lon": -57.71503300750316,
        "alt_km": 767.8466825416172,
        "timestamp": "2025-12-03T17:47:51.113529+00:00",
        "meta_object_name": "COSMOS 2251 DEB",
        "meta_object_id": "1993-036ABH",
        "meta_epoch": "2025-12-02T09:14:30.798816",
        "meta_mean_motion": 14.36943811,
        "meta_eccentricity": 0.00237378,
        "meta_inclination": 74.0353,
        "meta_ra_of_asc_node": 315.979,
        "meta_arg_of_pericenter": 34.4087,
        "meta_mean_anomaly": 115.9286,
        "meta_ephemeris_type": 0,
        "meta_classification_type": "U",
        "meta_norad_cat_id": 34818,
        "meta_element_set_no": 999,
        "meta_rev_at_epoch": 87221,
        "meta_bstar": 0.00031365968,
        "meta_mean_motion_dot": 9.06e-06,
        "meta_mean_motion_ddot": 0,
        "tle_line1": "1 34818U 93036ABH 25336.38507869  .00000906  00000+0  31366-3 0  9996",
        "tle_line2": "2 34818  74.0353 315.9790 0023737  34.4087 115.9286 14.36943811872212"
      },
      "geometry": {
        "type": "Point",
        "coordinates": [
          -57.71503300750316,
          -34.15953288789419
        ]
      }
    },
    {
      "type": "Feature",
      "properties": {
        "norad_id": 34819,
        "name": "COSMOS 2251 DEB",
        "group": "cosmos-2251-debris",
        "lat": 73.90547909681551,
        "lon": -103.4475104531303,
        "alt_km": 684.460639282307,
        "timestamp": "2025-12-03T17:47:51.113541+00:00",
        "meta_object_name": "COSMOS 2251 DEB",
        "meta_object_id": "1993-036ABJ",
        "meta_epoch": "2025-12-03T06:42:50.616000",
        "meta_mean_motion": 14.63727917,
        "meta_eccentricity": 0.0016054,
        "meta_inclination": 74.0167,
        "meta_ra_of_asc_node": 160.8406,
        "meta_arg_of_pericenter": 254.3249,
        "meta_mean_anomaly": 285.073,
        "meta_ephemeris_type": 0,
        "meta_classification_type": "U",
        "meta_norad_cat_id": 34819,
        "meta_element_set_no": 999,
        "meta_rev_at_epoch": 88090,
        "meta_bstar": 0.0018386,
        "meta_mean_motion_dot": 9.579e-05,
        "meta_mean_motion_ddot": 0,
        "tle_line1": "1 34819U 93036ABJ 25337.27975250  .00009579  00000+0  18386-2 0  9990",
        "tle_line2": "2 34819  74.0167 160.8406 0016054 254.3249 285.0730 14.63727917880909"
      },
      "geometry": {
        "type": "Point",
        "coordinates": [
          -103.4475104531303,
          73.90547909681551
        ]
      }
    },
    {
      "type": "Feature",
      "properties": {
        "norad_id": 34823,
        "name": "COSMOS 2251 DEB",
        "group": "cosmos-2251-debris",
        "lat": 63.51979945389632,
        "lon": 154.3769937957993,
        "alt_km": 784.1514332446031,
        "timestamp": "2025-12-03T17:47:51.113551+00:00",
        "meta_object_name": "COSMOS 2251 DEB",
        "meta_object_id": "1993-036ABN",
        "meta_epoch": "2025-12-03T09:13:20.032032",
        "meta_mean_motion": 14.54804511,
        "meta_eccentricity": 0.015556,
        "meta_inclination": 74.0394,
        "meta_ra_of_asc_node": 119.9881,
        "meta_arg_of_pericenter": 207.0513,
        "meta_mean_anomaly": 152.2484,
        "meta_ephemeris_type": 0,
        "meta_classification_type": "U",
        "meta_norad_cat_id": 34823,
        "meta_element_set_no": 999,
        "meta_rev_at_epoch": 88245,
        "meta_bstar": 0.0013569,
        "meta_mean_motion_dot": 6.819e-05,
        "meta_mean_motion_ddot": 0,
        "tle_line1": "1 34823U 93036ABN 25337.38425963  .00006819  00000+0  13569-2 0  9990",
        "tle_line2": "2 34823  74.0394 119.9881 0155560 207.0513 152.2484 14.54804511882452"
      },
      "geometry": {
        "type": "Point",
        "coordinates": [
          154.3769937957993,
          63.51979945389632
        ]
      }
    }
  ]
}